ONEWEB-0512             
1 54130U 22138T   25143.15510340  .00000041  00000+0  71080-4 0  9997
2 54130  87.9246  22.5262 0001405  79.4341 280.6950 13.19724067126232
ONEWEB-0513             
1 54131U 22138U   25142.71802826  .00000008  00000+0 -11578-4 0  9992
2 54131  87.9243  22.5858 0001370  76.5761 283.5524 13.20260810126069
ONEWEB-0514             
1 54132U 22138V   25142.56436361  .00000013  00000+0 -87630-6 0  9993
2 54132  87.9240  22.6123 0001856  79.9680 280.1662 13.19724166125308
ONEWEB-0515             
1 54133U 22138W   25142.66837124  .00000096  00000+0  20472-3 0  9995
2 54133  87.9271 352.1825 0002666  97.5014 262.6422 13.20770490128620
ONEWEB-0516             
1 54134U 22138X   25142.23582765  .00000089  00000+0  18962-3 0  9990
2 54134  87.9247  22.7117 0001758  84.8103 275.3230 13.19724252125265
ONEWEB-0517             
1 54135U 22138Y   25143.12509773  .00000045  00000+0  80127-4 0  9993
2 54135  87.9239  22.4963 0001850  71.0452 289.0881 13.19724431126254
ONEWEB-0518             
1 54136U 22138Z   25143.14404614 -.00000110  00000+0 -30789-3 0  9997
2 54136  87.9245  22.5270 0001651  83.0238 277.1082 13.19725575126259
ONEWEB-0519             
1 54137U 22138AA  25142.41115023 -.00000022  00000+0 -86721-4 0  9990
2 54137  87.9239  22.6309 0001816  74.0486 286.0846 13.19724255125299
